[{"OBJECT_NAME":"STARLINK-5140","OBJECT_ID":"2023-046BH","EPOCH":"2026-03-09T02:26:40.218432","MEAN_MOTION":15.0253426,"ECCENTRICITY":0.00011711,"INCLINATION":43.0008,"RA_OF_ASC_NODE":110.9228,"ARG_OF_PERICENTER":272.7156,"MEAN_ANOMALY":87.3553,"EPHEMERIS_TYPE":0,"CLASSIFICATION_TYPE":"U","NORAD_CAT_ID":56147,"ELEMENT_SET_NO":999,"REV_AT_EPOCH":16256,"BSTAR":3.9003224e-5,"MEAN_MOTION_DOT":3.23e-6,"MEAN_MOTION_DDOT":0},{"OBJECT_NAME":"KORSAT-3","OBJECT_ID":"2025-081A","EPOCH":"2026-03-09T21:24:50.510592","MEAN_MOTION":14.99637968,"ECCENTRICITY":0.00099231,"INCLINATION":45.4106,"RA_OF_ASC_NODE":130.6437,"ARG_OF_PERICENTER":32.4345,"MEAN_ANOMALY":327.7142,"EPHEMERIS_TYPE":0,"CLASSIFICATION_TYPE":"U","NORAD_CAT_ID":63630,"ELEMENT_SET_NO":999,"REV_AT_EPOCH":4828,"BSTAR":0.00043193523,"MEAN_MOTION_DOT":5.176e-5,"MEAN_MOTION_DDOT":0}]
